[{"OBJECT_NAME":"STARLINK-2620","OBJECT_ID":"2021-040AB","EPOCH":"2026-03-09T14:50:18.769920","MEAN_MOTION":15.3020834,"ECCENTRICITY":0.0002071,"INCLINATION":53.1616,"RA_OF_ASC_NODE":178.4535,"ARG_OF_PERICENTER":50.3086,"MEAN_ANOMALY":309.8098,"EPHEMERIS_TYPE":0,"CLASSIFICATION_TYPE":"U","NORAD_CAT_ID":48453,"ELEMENT_SET_NO":999,"REV_AT_EPOCH":26667,"BSTAR":0.00047094,"MEAN_MOTION_DOT":0.00013618,"MEAN_MOTION_DDOT":0},{"OBJECT_NAME":"FENGYUN 1C DEB","OBJECT_ID":"1999-025BZU","EPOCH":"2026-03-09T17:19:51.665664","MEAN_MOTION":15.28412118,"ECCENTRICITY":0.00188802,"INCLINATION":98.9598,"RA_OF_ASC_NODE":354.2029,"ARG_OF_PERICENTER":82.3682,"MEAN_ANOMALY":277.9697,"EPHEMERIS_TYPE":0,"CLASSIFICATION_TYPE":"U","NORAD_CAT_ID":31614,"ELEMENT_SET_NO":999,"REV_AT_EPOCH":97742,"BSTAR":0.011500831,"MEAN_MOTION_DOT":0.0033373,"MEAN_MOTION_DDOT":0}]
